start=new Date('2022-04-22T00:00:00.000Z').valueOf();
sats=[{"MEAN_MOTION_DDOT":"0.0000000000000","CENTER_NAME":"EARTH","SEMIMAJOR_AXIS":"6763.949","OBJECT_ID":"2022-017R","INCLINATION":"53.2172","ECCENTRICITY":"0.00015090","SITE":"AFWTR","PERIOD":"92.270","TIME_SYSTEM":"UTC","EPHEMERIS_TYPE":"0","REV_AT_EPOCH":"371","EPOCH":"2022-04-21T22:00:00.999936","RCS_SIZE":"LARGE","LAUNCH_DATE":"2022-02-25","MEAN_MOTION_DOT":"-0.00716821","RA_OF_ASC_NODE":"230.4444","MEAN_ELEMENT_THEORY":"SGP4","TLE_LINE1":"1 51783U 22017R   22111.91667824 -.00716821  00000-0 -92741-2 0  9998","TLE_LINE2":"2 51783  53.2172 230.4444 0001509  46.8240 128.3700 15.60638230  3712","COUNTRY_CODE":"US","OBJECT_NAME":"STARLINK-3628","DECAY_DATE":null,"NORAD_CAT_ID":"51783","CLASSIFICATION_TYPE":"U","ARG_OF_PERICENTER":"46.8240","PERIAPSIS":"384.794","APOAPSIS":"386.835","MEAN_MOTION":"15.60638230","FILE":"3410450","ELEMENT_SET_NO":"999","OBJECT_TYPE":"PAYLOAD","MEAN_ANOMALY":"128.3700","REF_FRAME":"TEME","BSTAR":"-0.00927410000000","GP_ID":"201778293"},{"CENTER_NAME":"EARTH","MEAN_MOTION_DDOT":"0.0000000000000","SEMIMAJOR_AXIS":"6846.174","OBJECT_ID":"2022-017S","INCLINATION":"53.2173","ECCENTRICITY":"0.00014780","SITE":"AFWTR","PERIOD":"93.958","TIME_SYSTEM":"UTC","EPHEMERIS_TYPE":"0","REV_AT_EPOCH":"368","EPOCH":"2022-04-21T22:00:00.999936","RCS_SIZE":"LARGE","LAUNCH_DATE":"2022-02-25","MEAN_MOTION_DOT":"-0.00719952","RA_OF_ASC_NODE":"235.0723","MEAN_ELEMENT_THEORY":"SGP4","TLE_LINE2":"2 51784  53.2173 235.0723 0001478  45.2486 308.8477 15.32607258  3682","COUNTRY_CODE":"US","TLE_LINE1":"1 51784U 22017S   22111.91667824 -.00719952  00000-0 -24436-1 0  9992","OBJECT_NAME":"STARLINK-3632","CLASSIFICATION_TYPE":"U","DECAY_DATE":null,"NORAD_CAT_ID":"51784","PERIAPSIS":"467.027","ARG_OF_PERICENTER":"45.2486","APOAPSIS":"469.051","MEAN_MOTION":"15.32607258","FILE":"3410450","ELEMENT_SET_NO":"999","OBJECT_TYPE":"PAYLOAD","MEAN_ANOMALY":"308.8477","REF_FRAME":"TEME","BSTAR":"-0.02443600000000","GP_ID":"201778208"},{"RA_OF_ASC_NODE":"230.4494","LAUNCH_DATE":"2022-02-25","MEAN_MOTION_DOT":"-0.00716764","EPOCH":"2022-04-21T22:00:00.999936","RCS_SIZE":"LARGE","EPHEMERIS_TYPE":"0","TIME_SYSTEM":"UTC","REV_AT_EPOCH":"371","SITE":"AFWTR","PERIOD":"92.269","INCLINATION":"53.2172","ECCENTRICITY":"0.00016270","MEAN_MOTION_DDOT":"0.0000000000000","CENTER_NAME":"EARTH","SEMIMAJOR_AXIS":"6763.925","OBJECT_ID":"2022-017T","GP_ID":"201778373","MEAN_ANOMALY":"134.6844","OBJECT_TYPE":"PAYLOAD","REF_FRAME":"TEME","BSTAR":"-0.00926990000000","FILE":"3410450","MEAN_MOTION":"15.60646762","ELEMENT_SET_NO":"999","ARG_OF_PERICENTER":"42.0361","PERIAPSIS":"384.689","APOAPSIS":"386.890","NORAD_CAT_ID":"51785","DECAY_DATE":null,"CLASSIFICATION_TYPE":"U","TLE_LINE1":"1 51785U 22017T   22111.91667824 -.00716764  00000-0 -92699-2 0  9998","COUNTRY_CODE":"US","TLE_LINE2":"2 51785  53.2172 230.4494 0001627  42.0361 134.6844 15.60646762  3710","OBJECT_NAME":"STARLINK-3646","MEAN_ELEMENT_THEORY":"SGP4"},{"PERIOD":"93.942","SITE":"AFWTR","ECCENTRICITY":"0.00013310","INCLINATION":"53.2173","OBJECT_ID":"2022-017U","SEMIMAJOR_AXIS":"6845.414","MEAN_MOTION_DDOT":"0.0000000000000","CENTER_NAME":"EARTH","RA_OF_ASC_NODE":"235.0719","MEAN_MOTION_DOT":"-0.00719013","LAUNCH_DATE":"2022-02-25","RCS_SIZE":"LARGE","EPOCH":"2022-04-21T22:00:00.999936","REV_AT_EPOCH":"368","EPHEMERIS_TYPE":"0","TIME_SYSTEM":"UTC","APOAPSIS":"468.190","ARG_OF_PERICENTER":"53.5571","PERIAPSIS":"466.368","NORAD_CAT_ID":"51786","DECAY_DATE":null,"CLASSIFICATION_TYPE":"U","OBJECT_NAME":"STARLINK-3638","TLE_LINE1":"1 51786U 22017U   22111.91667824 -.00719013  00000-0 -24206-1 0  9997","TLE_LINE2":"2 51786  53.2173 235.0719 0001331  53.5571 326.1656 15.32862419  3688","COUNTRY_CODE":"US","MEAN_ELEMENT_THEORY":"SGP4","GP_ID":"201778464","BSTAR":"-0.02420600000000","REF_FRAME":"TEME","OBJECT_TYPE":"PAYLOAD","MEAN_ANOMALY":"326.1656","ELEMENT_SET_NO":"999","FILE":"3410450","MEAN_MOTION":"15.32862419"},{"SITE":"AFWTR","PERIOD":"93.973","INCLINATION":"53.2173","ECCENTRICITY":"0.00014420","CENTER_NAME":"EARTH","MEAN_MOTION_DDOT":"0.0000000000000","OBJECT_ID":"2022-017V","SEMIMAJOR_AXIS":"6846.934","RA_OF_ASC_NODE":"235.0725","LAUNCH_DATE":"2022-02-25","MEAN_MOTION_DOT":"-0.00720625","EPOCH":"2022-04-21T22:00:00.999936","RCS_SIZE":"LARGE","EPHEMERIS_TYPE":"0","TIME_SYSTEM":"UTC","REV_AT_EPOCH":"368","PERIAPSIS":"467.812","ARG_OF_PERICENTER":"49.8835","APOAPSIS":"469.787","NORAD_CAT_ID":"51787","DECAY_DATE":null,"CLASSIFICATION_TYPE":"U","TLE_LINE2":"2 51787  53.2173 235.0725 0001442  49.8835 278.4329 15.32351951  3680","COUNTRY_CODE":"US","TLE_LINE1":"1 51787U 22017V   22111.91667824 -.00720625  00000-0 -24659-1 0  9991","OBJECT_NAME":"STARLINK-3619","MEAN_ELEMENT_THEORY":"SGP4","GP_ID":"201778634","OBJECT_TYPE":"PAYLOAD","REF_FRAME":"TEME","MEAN_ANOMALY":"278.4329","BSTAR":"-0.02465900000000","FILE":"3410450","MEAN_MOTION":"15.32351951","ELEMENT_SET_NO":"999"},{"OBJECT_ID":"2022-017W","SEMIMAJOR_AXIS":"6844.275","MEAN_MOTION_DDOT":"0.0000000000000","CENTER_NAME":"EARTH","ECCENTRICITY":"0.00013590","INCLINATION":"53.2172","PERIOD":"93.918","SITE":"AFWTR","REV_AT_EPOCH":"367","TIME_SYSTEM":"UTC","EPHEMERIS_TYPE":"0","RCS_SIZE":"LARGE","EPOCH":"2022-04-21T22:00:00.999936","MEAN_MOTION_DOT":"-0.00717597","LAUNCH_DATE":"2022-02-25","RA_OF_ASC_NODE":"235.0706","MEAN_ELEMENT_THEORY":"SGP4","OBJECT_NAME":"STARLINK-3641","TLE_LINE1":"1 51788U 22017W   22111.91667824 -.00717597  00000-0 -23863-1 0  9992","TLE_LINE2":"2 51788  53.2172 235.0706 0001359  51.9026   5.9716 15.33245114  3678","COUNTRY_CODE":"US","CLASSIFICATION_TYPE":"U","DECAY_DATE":null,"NORAD_CAT_ID":"51788","APOAPSIS":"467.070","ARG_OF_PERICENTER":"51.9026","PERIAPSIS":"465.210","ELEMENT_SET_NO":"999","MEAN_MOTION":"15.33245114","FILE":"3410450","BSTAR":"-0.02386300000000","OBJECT_TYPE":"PAYLOAD","MEAN_ANOMALY":"5.9716","REF_FRAME":"TEME","GP_ID":"201778549"},{"MEAN_MOTION_DOT":"-0.00719370","LAUNCH_DATE":"2022-02-25","RA_OF_ASC_NODE":"235.0721","REV_AT_EPOCH":"368","TIME_SYSTEM":"UTC","EPHEMERIS_TYPE":"0","RCS_SIZE":"LARGE","EPOCH":"2022-04-21T22:00:00.999936","ECCENTRICITY":"0.00013470","INCLINATION":"53.2173","PERIOD":"93.950","SITE":"AFWTR","OBJECT_ID":"2022-017X","SEMIMAJOR_AXIS":"6845.794","MEAN_MOTION_DDOT":"0.0000000000000","CENTER_NAME":"EARTH","GP_ID":"201778714","ELEMENT_SET_NO":"999","MEAN_MOTION":"15.32734792","FILE":"3410450","BSTAR":"-0.02431700000000","OBJECT_TYPE":"PAYLOAD","REF_FRAME":"TEME","MEAN_ANOMALY":"315.1025","DECAY_DATE":null,"NORAD_CAT_ID":"51789","CLASSIFICATION_TYPE":"U","APOAPSIS":"468.581","ARG_OF_PERICENTER":"51.8262","PERIAPSIS":"466.737","MEAN_ELEMENT_THEORY":"SGP4","OBJECT_NAME":"STARLINK-3639","TLE_LINE1":"1 51789U 22017X   22111.91667824 -.00719370  00000-0 -24317-1 0  9999","TLE_LINE2":"2 51789  53.2173 235.0721 0001347  51.8262 315.1025 15.32734792  3689","COUNTRY_CODE":"US"},{"GP_ID":"201778124","MEAN_ANOMALY":"20.7413","OBJECT_TYPE":"PAYLOAD","REF_FRAME":"TEME","BSTAR":"-0.02375200000000","MEAN_MOTION":"15.33372679","FILE":"3410450","ELEMENT_SET_NO":"999","ARG_OF_PERICENTER":"49.7733","PERIAPSIS":"464.796","APOAPSIS":"466.725","DECAY_DATE":null,"CLASSIFICATION_TYPE":"U","NORAD_CAT_ID":"51790","TLE_LINE1":"1 51790U 22017Y   22111.91667824 -.00717199  00000-0 -23752-1 0  9990","COUNTRY_CODE":"US","TLE_LINE2":"2 51790  53.2172 235.0700 0001409  49.7733  20.7413 15.33372679  3677","OBJECT_NAME":"STARLINK-3631","MEAN_ELEMENT_THEORY":"SGP4","RA_OF_ASC_NODE":"235.0700","LAUNCH_DATE":"2022-02-25","MEAN_MOTION_DOT":"-0.00717199","EPOCH":"2022-04-21T22:00:00.999936","RCS_SIZE":"LARGE","TIME_SYSTEM":"UTC","EPHEMERIS_TYPE":"0","REV_AT_EPOCH":"367","SITE":"AFWTR","PERIOD":"93.911","INCLINATION":"53.2172","ECCENTRICITY":"0.00014090","MEAN_MOTION_DDOT":"0.0000000000000","CENTER_NAME":"EARTH","OBJECT_ID":"2022-017Y","SEMIMAJOR_AXIS":"6843.895"},{"CENTER_NAME":"EARTH","MEAN_MOTION_DDOT":"0.0000000000000","OBJECT_ID":"2022-017Z","SEMIMAJOR_AXIS":"6845.034","SITE":"AFWTR","PERIOD":"93.934","INCLINATION":"53.2173","ECCENTRICITY":"0.00014440","EPOCH":"2022-04-21T22:00:00.999936","RCS_SIZE":"LARGE","TIME_SYSTEM":"UTC","EPHEMERIS_TYPE":"0","REV_AT_EPOCH":"367","RA_OF_ASC_NODE":"235.0715","LAUNCH_DATE":"2022-02-25","MEAN_MOTION_DOT":"-0.00718576","TLE_LINE2":"2 51791  53.2173 235.0715 0001444  45.8338 346.6444 15.32989988  3672","COUNTRY_CODE":"US","TLE_LINE1":"1 51791U 22017Z   22111.91667824 -.00718576  00000-0 -24092-1 0  9999","OBJECT_NAME":"STARLINK-3602","MEAN_ELEMENT_THEORY":"SGP4","PERIAPSIS":"465.911","ARG_OF_PERICENTER":"45.8338","APOAPSIS":"467.888","DECAY_DATE":null,"CLASSIFICATION_TYPE":"U","NORAD_CAT_ID":"51791","OBJECT_TYPE":"PAYLOAD","REF_FRAME":"TEME","MEAN_ANOMALY":"346.6444","BSTAR":"-0.02409200000000","MEAN_MOTION":"15.32989988","FILE":"3410450","ELEMENT_SET_NO":"999","GP_ID":"201778294"},{"GP_ID":"201778209","MEAN_MOTION":"15.33628049","FILE":"3410450","ELEMENT_SET_NO":"999","OBJECT_TYPE":"PAYLOAD","MEAN_ANOMALY":"50.1435","REF_FRAME":"TEME","BSTAR":"-0.02354400000000","DECAY_DATE":null,"NORAD_CAT_ID":"51792","CLASSIFICATION_TYPE":"U","PERIAPSIS":"463.951","ARG_OF_PERICENTER":"45.5365","APOAPSIS":"466.050","MEAN_ELEMENT_THEORY":"SGP4","COUNTRY_CODE":"US","TLE_LINE2":"2 51792  53.2172 235.0685 0001534  45.5365  50.1435 15.33628049  3671","TLE_LINE1":"1 51792U 22017AA  22111.91667824 -.00716768  00000-0 -23544-1 0  9992","OBJECT_NAME":"STARLINK-3626","LAUNCH_DATE":"2022-02-25","MEAN_MOTION_DOT":"-0.00716768","RA_OF_ASC_NODE":"235.0685","EPHEMERIS_TYPE":"0","TIME_SYSTEM":"UTC","REV_AT_EPOCH":"367","EPOCH":"2022-04-21T22:00:00.999936","RCS_SIZE":"LARGE","INCLINATION":"53.2172","ECCENTRICITY":"0.00015340","SITE":"AFWTR","PERIOD":"93.895","CENTER_NAME":"EARTH","MEAN_MOTION_DDOT":"0.0000000000000","SEMIMAJOR_AXIS":"6843.136","OBJECT_ID":"2022-017AA"}];
